NORAD_CAT_ID,OBJECT_NAME,OBJECT_TYPE,EPOCH,MEAN_MOTION,ECCENTRICITY,INCLINATION,RA_OF_ASC_NODE,ARG_OF_PERICENTER,MEAN_ANOMALY,BSTAR,MEAN_MOTION_DOT,MEAN_MOTION_DDOT,TLE_LINE0,TLE_LINE1,TLE_LINE2,SEMIMAJOR_AXIS,PERIOD,APOGEE,PERIGEE,DECAYED
50199.0,STARLINK-3270,PAYLOAD,2023-01-07 04:19:52,15.08824232,0.0002733,53.2177,35.3855,24.7428,335.3694,0.0008375,0.0001306,0.0,0 STARLINK-3270,1 50199U 21125AV  23007.18046921  .00013060  00000-0  83750-3 0  9994,2 50199  53.2177  35.3855 0002733  24.7428 335.3694 15.08824232 61984,6917.929,95.439,541.684,537.903,0.0
50199.0,STARLINK-3270,PAYLOAD,2023-01-07 20:13:44,15.0883823,0.0002705,53.217,32.4119,28.9189,331.1953,0.00073327,0.00011401,0.0,0 STARLINK-3270,1 50199U 21125AV  23007.84287285  .00011401  00000-0  73327-3 0  9993,2 50199  53.2170  32.4119 0002705  28.9189 331.1953 15.08838230 62084,6917.886,95.438,541.622,537.88,0.0
50199.0,STARLINK-3270,PAYLOAD,2023-01-08 04:10:39,15.0884483,0.0002653,53.2168,30.9247,29.8717,330.2426,0.00064706,0.00010026,0.0,0 STARLINK-3270,1 50199U 21125AV  23008.17407205  .00010026  00000-0  64706-3 0  9999,2 50199  53.2168  30.9247 0002653  29.8717 330.2426 15.08844830 61655,6917.866,95.437,541.566,537.895,0.0
50199.0,STARLINK-3270,PAYLOAD,2023-01-08 10:32:12,15.08852009,0.0002692,53.2167,29.7353,30.4811,329.6337,0.0007394999999999,0.00011505,0.0,0 STARLINK-3270,1 50199U 21125AV  23008.43903039  .00011505  00000-0  73950-3 0  9998,2 50199  53.2167  29.7353 0002692  30.4811 329.6337 15.08852009 62172,6917.844,95.437,541.571,537.846,0.0
50199.0,STARLINK-3270,PAYLOAD,2023-01-09 07:12:12,15.08848874,0.0002602,53.2169,25.8683,34.056999999999995,326.0589,0.0002861,4.269e-05,0.0,0 STARLINK-3270,1 50199U 21125AV  23009.30014777  .00004269  00000-0  28610-3 0  9999,2 50199  53.2169  25.8683 0002602  34.0570 326.0589 15.08848874 61826,6917.853,95.437,541.518,537.918,0.0
50199.0,STARLINK-3270,PAYLOAD,2023-01-09 10:22:58,15.08849378,0.0002628,53.2169,25.2736,34.2671,325.849,0.00027476,4.088e-05,0.0,0 STARLINK-3270,1 50199U 21125AV  23009.43262714  .00004088  00000-0  27476-3 0  9997,2 50199  53.2169  25.2736 0002628  34.2671 325.8490 15.08849378 62325,6917.852,95.437,541.535,537.899,0.0
50199.0,STARLINK-3270,PAYLOAD,2023-01-10 07:02:59,15.08842033,0.0002664,53.2175,21.4082,26.6337,333.4792,2.8777e-05,1.7e-06,0.0,0 STARLINK-3270,1 50199U 21125AV  23010.29374636  .00000170  00000-0  28777-4 0  9994,2 50199  53.2175  21.4082 0002664  26.6337 333.4792 15.08842033 61979,6917.874,95.437,541.582,537.896,0.0
50199.0,STARLINK-3270,PAYLOAD,2023-01-10 10:13:46,15.08840456,0.0002904,53.2172,20.8165,25.3536,334.7598,-9.057e-06,-4.33e-06,0.0,0 STARLINK-3270,1 50199U 21125AV  23010.42622800 -.00000433  00000-0 -90570-5 0  9993,2 50199  53.2172  20.8165 0002904  25.3536 334.7598 15.08840456 62476,6917.879,95.438,541.753,537.735,0.0
50199.0,STARLINK-3270,PAYLOAD,2023-01-10 18:10:41,15.088402300000002,0.0002959,53.2185,19.3296,27.9574,332.1576,2.3335e-05,8.3e-07,0.0,0 STARLINK-3270,1 50199U 21125AV  23010.75742976  .00000083  00000-0  23335-4 0  9999,2 50199  53.2185  19.3296 0002959  27.9574 332.1576 15.08840230 62522,6917.88,95.438,541.7919999999998,537.698,0.0
50199.0,STARLINK-3270,PAYLOAD,2023-01-11 06:53:46,15.08861304,0.0002868,53.2183,16.9492,29.8801,330.2355,0.00058803,9.088e-05,0.0,0 STARLINK-3270,1 50199U 21125AV  23011.28734167  .00009088  00000-0  58803-3 0  9992,2 50199  53.2183  16.9492 0002868  29.8801 330.2355 15.08861304 62129,6917.815,95.436,541.664,537.696,0.0
50199.0,STARLINK-3270,PAYLOAD,2023-01-12 06:44:33,15.08850326,0.0002848,53.2179,12.4872,26.7969,333.31699999999995,0.0002312,3.394e-05,0.0,0 STARLINK-3270,1 50199U 21125AV  23012.28094005  .00003394  00000-0  23120-3 0  9991,2 50199  53.2179  12.4872 0002848  26.7969 333.3170 15.08850326 62273,6917.849,95.437,541.684,537.744,0.0
50199.0,STARLINK-3270,PAYLOAD,2023-01-13 00:13:48,15.08830764,0.0002572,53.2189,9.2186,27.6916,332.4213,-0.00015192,-2.705e-05,0.0,0 STARLINK-3270,1 50199U 21125AV  23013.00959037 -.00002705  00000-0 -15192-3 0  9994,2 50199  53.2189   9.2186 0002572  27.6916 332.4213 15.08830764 62386,6917.9090000000015,95.438,541.553,537.994,0.0
50199.0,STARLINK-3270,PAYLOAD,2023-01-13 09:46:07,15.08832645,0.0002614,53.2186,7.4339,31.7269,328.38800000000003,8.8235e-05,1.116e-05,0.0,0 STARLINK-3270,1 50199U 21125AV  23013.40703298  .00001116  00000-0  88235-4 0  9996,2 50199  53.2186   7.4339 0002614  31.7269 328.3880 15.08832645 62921,6917.903,95.438,541.576,537.96,0.0
50199.0,STARLINK-3270,PAYLOAD,2023-01-13 22:29:13,15.08832522,0.0002569,53.2182,5.0548,32.1277,327.9872,0.0002039,2.958e-05,0.0,0 STARLINK-3270,1 50199U 21125AV  23013.93695832  .00002958  00000-0  20390-3 0  9990,2 50199  53.2182   5.0548 0002569  32.1277 327.9872 15.08832522 63006,6917.903,95.438,541.545,537.991,0.0
50199.0,STARLINK-3270,PAYLOAD,2023-01-14 06:26:08,15.08857391,0.0002440999999999,53.2178,3.5688,35.8829,324.2326,0.00080646,0.00012576,0.0,0 STARLINK-3270,1 50199U 21125AV  23014.26815235  .00012576  00000-0  80646-3 0  9995,2 50199  53.2178   3.5688 0002441  35.8829 324.2326 15.08857391 62577,6917.826999999999,95.436,541.381,538.004,0.0
50199.0,STARLINK-3270,PAYLOAD,2023-01-14 15:58:27,15.08842379,0.0002208,53.2171,1.7875,45.142,314.9751,0.00053699,8.269e-05,0.0,0 STARLINK-3270,1 50199U 21125AV  23014.66559780  .00008269  00000-0  53699-3 0  9991,2 50199  53.2171   1.7875 0002208  45.1420 314.9751 15.08842379 62635,6917.8730000000005,95.437,541.266,538.211,0.0
50199.0,STARLINK-3270,PAYLOAD,2023-01-14 23:55:23,15.08840051,0.0002698,53.218,0.2982,53.1831,306.9408,0.0002162,3.154e-05,0.0,0 STARLINK-3270,1 50199U 21125AV  23014.99680069  .00003154  00000-0  21620-3 0  9999,2 50199  53.2180   0.2982 0002698  53.1831 306.9408 15.08840051 62686,6917.88,95.438,541.612,537.879,0.0
50199.0,STARLINK-3270,PAYLOAD,2023-01-15 09:27:42,15.08844609,0.0002681,53.2173,358.5126,50.887,309.236,0.00038769,5.888e-05,0.0,0 STARLINK-3270,1 50199U 21125AV  23015.39424101  .00005888  00000-0  38769-3 0  9995,2 50199  53.2173 358.5126 0002681  50.8870 309.2360 15.08844609 63223,6917.866,95.437,541.586,537.877,0.0
50199.0,STARLINK-3270,PAYLOAD,2023-01-16 06:07:42,15.08874138,0.0001675,53.2159,354.6465,61.8061,298.31,0.0012315,0.00019384,0.0,0 STARLINK-3270,1 50199U 21125AV  23016.25535176  .00019384  00000-0  12315-2 0  9990,2 50199  53.2159 354.6465 0001675  61.8061 298.3100 15.08874138 62876,6917.776,95.435,540.8,538.482,0.0
50199.0,STARLINK-3270,PAYLOAD,2023-01-16 07:43:05,15.08874438,0.0002329,53.2172,354.348,55.3503,304.7708,0.0013684,0.00021578,0.0,0 STARLINK-3270,1 50199U 21125AV  23016.32159304  .00021578  00000-0  13684-2 0  9991,2 50199  53.2172 354.3480 0002329  55.3503 304.7708 15.08874438 63365,6917.775,95.435,541.251,538.029,0.0
50199.0,STARLINK-3270,PAYLOAD,2023-01-16 15:40:01,15.08849161,0.0001651,53.2149,352.8665,58.7225,301.3929,0.00013858,1.919e-05,0.0,0 STARLINK-3270,1 50199U 21125AV  23016.65279264  .00001919  00000-0  13858-3 0  9996,2 50199  53.2149 352.8665 0001651  58.7225 301.3929 15.08849161 62937,6917.852,95.437,540.86,538.575,0.0
50199.0,STARLINK-3270,PAYLOAD,2023-01-17 04:23:06,15.0882896,0.0001583,53.2165,350.4831,71.9439,288.1726,-9.3336e-05,-1.773e-05,0.0,0 STARLINK-3270,1 50199U 21125AV  23017.18271982 -.00001773  00000-0 -93336-4 0  9994,2 50199  53.2165 350.4831 0001583  71.9439 288.1726 15.08828960 63013,6917.914000000001,95.438,540.874,538.684,0.0
50199.0,STARLINK-3270,PAYLOAD,2023-01-17 21:52:22,15.08827071,0.0002028,53.2162,347.2136,85.89399999999999,274.2284,0.0005208,8.007e-05,0.0,0 STARLINK-3270,1 50199U 21125AV  23017.91137094  .00008007  00000-0  52080-3 0  9995,2 50199  53.2162 347.2136 0002028  85.8940 274.2284 15.08827071 63600,6917.92,95.438,541.188,538.382,0.0
50199.0,STARLINK-3270,PAYLOAD,2023-01-18 07:24:41,15.08843091,0.0001885,53.2167,345.4285,90.3859,269.7349,0.00083655,0.00013052,0.0,0 STARLINK-3270,1 50199U 21125AV  23018.30881079  .00013052  00000-0  83655-3 0  9996,2 50199  53.2167 345.4285 0001885  90.3859 269.7349 15.08843091 63184,6917.871,95.437,541.04,538.432,0.0
50199.0,STARLINK-3270,PAYLOAD,2023-01-19 04:04:40,15.08892504,0.0001452,53.2163,341.5638,91.525,268.5909,0.0019673,0.00031206,0.0,0 STARLINK-3270,1 50199U 21125AV  23019.16991896  .00031206  00000-0  19673-2 0  9999,2 50199  53.2163 341.5638 0001452  91.5250 268.5909 15.08892504 63314,6917.72,95.434,540.589,538.58,0.0
50199.0,STARLINK-3270,PAYLOAD,2023-01-19 07:15:26,15.08897914,0.0001547,53.2163,340.9681,93.1315,266.9854,0.0016562,0.00026211,0.0,0 STARLINK-3270,1 50199U 21125AV  23019.30239321  .00026211  00000-0  16562-2 0  9997,2 50199  53.2163 340.9681 0001547  93.1315 266.9854 15.08897914 63816,6917.703,95.434,540.639,538.498,0.0
50199.0,STARLINK-3270,PAYLOAD,2023-01-20 03:55:28,15.08846353,0.0003005,53.2165,337.1011,88.0484,272.0852,0.0003503999999999,5.294e-05,0.0,0 STARLINK-3270,1 50199U 21125AV  23020.16352255  .00005294  00000-0  35040-3 0  9996,2 50199  53.2165 337.1011 0003005  88.0484 272.0852 15.08846353 63462,6917.861,95.437,541.805,537.6469999999999,0.0
50199.0,STARLINK-3270,PAYLOAD,2023-01-20 07:06:14,15.0883766,0.0001530999999999,53.2171,336.5068,71.8576,288.2582,0.00046834,7.173e-05,0.0,0 STARLINK-3270,1 50199U 21125AV  23020.29600461  .00007173  00000-0  46834-3 0  9996,2 50199  53.2171 336.5068 0001531  71.8576 288.2582 15.08837660 63480,6917.888000000001,95.438,540.812,538.693,0.0
50199.0,STARLINK-3270,PAYLOAD,2023-01-21 05:21:38,15.08843051,0.0001539,53.2172,332.344,75.748,284.3683,0.0012055999999999,0.00018953,0.0,0 STARLINK-3270,1 50199U 21125AV  23021.22336768  .00018953  00000-0  12056-2 0  9992,2 50199  53.2172 332.3440 0001539  75.7480 284.3683 15.08843051 63620,6917.871,95.437,540.8009999999999,538.6709999999999,0.0
